38040,GLOBALSTAR M084,2011,114.08,700.0,+,52.0,Active,1,LEO,Kazakhstan,Globalstar,Commercial,Communications,Soyuz,1 38040U 11080A   24279.48595926 -.00000072  00000+0  17556-3 0  9993,2 38040  51.9987 103.8769 0000713 109.8032 270.8415 12.62268457590503,12.62268457,7.13e-05,LEO
38041,GLOBALSTAR M080,2011,114.08,700.0,+,52.0,Active,1,LEO,Kazakhstan,Globalstar,Commercial,Communications,Soyuz,1 38041U 11080B   24279.46225802 -.00000084  00000+0  11230-3 0  9991,2 38041  52.0042 105.4671 0000994 116.6417 275.9999 12.62266628590626,12.62266628,9.94e-05,LEO
38042,GLOBALSTAR M082,2011,114.08,700.0,+,52.01,Active,1,LEO,Kazakhstan,Globalstar,Commercial,Communications,Soyuz,1 38042U 11080C   24279.56447378 -.00000101  00000+0  17376-4 0  9995,2 38042  52.0080  60.5730 0000803  61.7731  15.7435 12.62267336591346,12.62267336,8.03e-05,LEO
38043,GLOBALSTAR M092,2011,114.08,700.0,+,52.01,Active,1,LEO,Kazakhstan,Globalstar,Commercial,Communications,Soyuz,1 38043U 11080D   24279.07822656 -.00000055  00000+0  27435-3 0  9992,2 38043  52.0070 152.4194 0000651  77.8911  69.0813 12.62266958589731,12.62266958,6.51e-05,LEO
38044,GLOBALSTAR M090,2011,114.08,700.0,+,51.99,Active,1,LEO,Kazakhstan,Globalstar,Commercial,Communications,Soyuz,1 38044U 11080E   24279.42364846 -.00000103  00000+0  31991-5 0  9992,2 38044  51.9888  55.1380 0000789  80.8017 316.6207 12.62268210591448,12.6226821,7.89e-05,LEO
38045,GLOBALSTAR M086,2011,114.08,700.0,+,51.99,Active,1,LEO,Kazakhstan,Globalstar,Commercial,Communications,Soyuz,1 38045U 11080F   24279.53785163 -.00000098  00000+0  30765-4 0  9994,2 38045  51.9906  55.3206 0001671 108.6468 328.6072 12.62267859591507,12.62267859,0.0001671,LEO
39072,GLOBALSTAR M097,2013,114.08,700.0,+,52.01,Active,1,LEO,Kazakhstan,Globalstar,Commercial,Communications,Soyuz,1 39072U 13005A   24279.46848621 -.00000052  00000+0  28986-3 0  9996,2 39072  52.0065 329.8276 0000657  86.2179 273.8763 12.62271113538647,12.62271113,6.57e-05,LEO
39073,GLOBALSTAR M093,2013,114.08,700.0,+,51.98,Active,1,LEO,Kazakhstan,Globalstar,Commercial,Communications,Soyuz,1 39073U 13005B   24279.52084162 -.00000058  00000+0  25744-3 0  9991,2 39073  51.9824 323.3761 0000665  78.1194 281.9747 12.62265079538605,12.62265079,6.65e-05,LEO
